 [

{
  "type": "node",
  "id": 1490603302,
  "lat": 41.4131502,
  "lon": 1.9667482,
  "tags": {
    "name": "Cal Anzi",
    "shop": "farm"
  }
},
{
  "type": "node",
  "id": 1642268093,
  "lat": 41.4122225,
  "lon": 1.9693209,
  "tags": {
    "addr:housenumber": "32, 1er 2a",
    "addr:street": "Avinguda Catalunya",
    "female": "no",
    "male": "yes",
    "name": "Raül",
    "phone": "+34 936720361",
    
    "wheelchair": "no"
  }
},
{
  "type": "node",
  "id": 1667350041,
  "lat": 41.4136707,
  "lon": 1.9659725,
  "tags": {
    "addr:housenumber": "100",
    "addr:street": "Avinguda Catalunya",
    "email": "info@condis.es",
    "entrance": "yes",
    "name": "Condis",
    "phone": "+34 936720204",
    
    "wheelchair": "yes"
  }
},
{
  "type": "node",
  "id": 1667350050,
  "lat": 41.4126570,
  "lon": 1.9682127,
  "tags": {
    "addr:housenumber": "52",
    "addr:street": "Avinguda Catalunya",
    "name": "Travis",
    "phone": "+34 936722783",
    
    "wheelchair": "yes"
  }
},
{
  "type": "node",
  "id": 1667350053,
  "lat": 41.4127958,
  "lon": 1.9679364,
  "tags": {
    "addr:housenumber": "54-56",
    "addr:street": "Avinguda Catalunya",
    "fax": "+34 936720600",
    "internet_access": "wlan",
    "is_in:country": "Spain",
    "name": "Lluís Pascual",
    "opening_hours": "Mo 07:00-14:30; Tu-Fr 07:00-14:30; 17:00-20:00; Sa 07:30-15:00, 17:00-20:00; Su 07:30-15:00",
    "phone": "+34 936720092",
    "shop": "bakery",
    "website": "www.lluispascual.com",
    "wheelchair": "yes"
  }
},
{
  "type": "node",
  "id": 2015839767,
  "lat": 41.4134602,
  "lon": 1.9663289,
  "tags": {
    "addr:housenumber": "105",
    "addr:street": "Avinguda Catalunya",
    "email": "gemma.dharma@gmail.com",
    "name": "Dharma",
    "opening_hours": "Mo-Fr 10:00-13:30, 17:00-20:30; Sa 10:00-14:00",
    "phone": "+34 936721250",
    "shop": "herbalist"
  }
},
{
  "type": "node",
  "id": 2015839768,
  "lat": 41.4131787,
  "lon": 1.9683246,
  "tags": {
    "addr:housenumber": "5",
    "addr:street": "Carrer Cadí",
    "name": "Isabel Mallén",
    "phone": "+34 936720572",
    "shop": "beauty"
  }
},
{
  "type": "node",
  "id": 2016906216,
  "lat": 41.4132525,
  "lon": 1.9652017,
  "tags": {
    "addr:housenumber": "8",
    "addr:street": "Carrer Sant Jordi",
    "fax": "+34 936720416",
    "name": "Enrique Sánchez",
    "phone": "+34 936720416",
    "shop": "car_repair",
    "wheelchair": "yes"
  }
},
{
  "type": "node",
  "id": 2016906217,
  "lat": 41.4126986,
  "lon": 1.9678085,
  "tags": {
    "addr:housenumber": "5",
    "addr:street": "Carrer Santa Maria",
    "email": "laxaropa@gmail.com",
    "name": "La Xaropa",
    "opening_hours": "Mo-Fr 16:30-20:00; Sa 10:00-13:30",
    "phone": "+34 936720952",
    "service:copy": "yes",
    "service:fax": "yes",
    "service:print": "yes",
    "shop": "books"
  }
},
{
  "type": "node",
  "id": 2016906220,
  "lat": 41.4126180,
  "lon": 1.9693228,
  "tags": {
    "addr:housenumber": "4",
    "addr:street": "Carrer Montseny",
    "email": "cristaleriamontseny@hotmail.com",
    "fax": "+34 936720173",
    "name": "Montseny",
    "opening_hours": "Mo-Fr 09:00-13:30,15:30-18:00",
    "phone": "+34 936720173",
    "shop": "glaziery"
  }
},
{
  "type": "node",
  "id": 2020118904,
  "lat": 41.4123682,
  "lon": 1.9696865,
  "tags": {
    "addr:housenumber": "3",
    "addr:street": "Carrer Montseny",
    "email": "aiguasplai@gmail.com",
    "fax": "+34 936720034",
    "name": "Aigua Splai",
    "opening_hours": "Tu-Fr 09:30-13:00, 17:00-19:00; Sa 10:00-13:00",
    "phone": "+34 936720034",
    "shop": "swimming_pool"
  }
},
{
  "type": "node",
  "id": 2020118921,
  "lat": 41.4132986,
  "lon": 1.9679060,
  "tags": {
    "addr:housenumber": "24",
    "addr:street": "Carrer Montseny",
    "addr:unit": "3;4",
    "female": "yes",
    "name": "Angulo's",
    "phone": "+34 936720857",
    "shop": "hairdresser",
    "unisex": "yes"
  }
},
{
  "type": "node",
  "id": 2020118985,
  "lat": 41.4135116,
  "lon": 1.9666263,
  "tags": {
    "addr:housenumber": "76",
    "addr:street": "Avinguda Catalunya",
    "craft": "carpenter",
    "email": "fusteriajmoreno@fusteriajmoreno.com",
    "entrance": "yes",
    "fax": "+34 936722607",
    "name": "Fusteria Jordi Moreno",
    "opening_hours": "Mo-Th 09:00-13:00, 15:30-19:00; Fr 09:00-15:00",
    "phone": "+34 936720570",
    "shop": "furniture",
    "website": "www.fusteriajmoreno.com"
  }
},
{
  "type": "node",
  "id": 2020118990,
  "lat": 41.4126669,
  "lon": 1.9691978,
  "tags": {
    "addr:housenumber": "6",
    "addr:street": "Carrer Montseny",
    "email": "nostrafauna@hotmail.com",
    "fax": "+34 936720871",
    "name": "Nostra fauna",
    "opening_hours": "Mo-Fr 09:00-14:00,16:00-20:00; Sa 09:00-14:00",
    "phone": "+34 936720449",
    "shop": "pet",
    "website": "www.nostrafauna.com"
  }
},
{
  "type": "node",
  "id": 2020118991,
  "lat": 41.4122169,
  "lon": 1.9698353,
  "tags": {
    "addr:housenumber": "1",
    "addr:street": "Carrer Montseny",
    "email": "sai@sai.cat",
    "fax": "+34 936721083",
    "name": "Sai",
    "opening_hours": "Mo-Th 09:30-13:30, 16:30-19:30; Sep-May: Fr 09:30-13:30, 16:30-19:30; Jun-Aug: Fr 09:30-14:30",
    "opensource": "yes",
    "phone": "+34 936720657",
    "repair": "yes",
    "second_hand": "yes",
    "shop": "computer",
    "website": "www.sai.cat",
    "wheelchair": "no"
  }
},
{
  "type": "node",
  "id": 2020170889,
  "lat": 41.4137991,
  "lon": 1.9668803,
  "tags": {
    "addr:housenumber": "38",
    "addr:street": "Carrer Montseny",
    "name": "La Parada",
    "opening_hours": "Tu-Fr 09:00-14:00, 17:00-20:30; Sa 09:00-14:30",
    "phone": "+34 936720990",
    "shop": "greengrocer"
  }
},
{
  "type": "node",
  "id": 2020170895,
  "lat": 41.4135043,
  "lon": 1.9661391,
  "tags": {
    "addr:housenumber": "111",
    "addr:street": "Avinguda Catalunya",
    "email": "margacavalle@gmail.com",
    "name": "Laia",
    "phone": "+34 936720049",
    "shop": "fabric"
  }
},
{
  "type": "node",
  "id": 2020170901,
  "lat": 41.4125751,
  "lon": 1.9684146,
  "tags": {
    "addr:housenumber": "50",
    "addr:street": "Avinguda Catalunya",
    "name": "Ollma",
    "phone": "+34 936720180",
    "shop": "electronics"
  }
},
{
  "type": "node",
  "id": 2020170906,
  "lat": 41.4132242,
  "lon": 1.9683561,
  "tags": {
    "addr:housenumber": "7",
    "addr:street": "Carrer Cadí",
    "name": "Tintoreria",
    "phone": "+34 936720129",
    "shop": "dry_cleaning"
  }
},
{
  "type": "node",
  "id": 2020715064,
  "lat": 41.4122923,
  "lon": 1.9687988,
  "tags": {
    "addr:housenumber": "43,49",
    "addr:street": "Avinguda Catalunya",
    "email": "boogievideodisc@telefonica.net",
    "name": "Boogie video disc",
    "opening_hours": "Mo-Sa 11:30-14:00, 17:00-21:00",
    "phone": "+34 936721266",
    "shop": "video"
  }
},
{
  "type": "node",
  "id": 2020715099,
  "lat": 41.4124764,
  "lon": 1.9686581,
  "tags": {
    "addr:housenumber": "46-48",
    "addr:street": "Avinguda Catalunya",
    "name": "Mercavila",
    "opening_hours": "Mo-Sa 09:00-21:45; Su 09:00-15:00",
    "phone": "+34 936720148",
    "shop": "supermarket",
    "wheelchair": "yes"
  }
},
{
  "type": "node",
  "id": 2020715114,
  "lat": 41.4128930,
  "lon": 1.9681198,
  "tags": {
    "addr:housenumber": "3",
    "addr:street": "Carrer Cadí",
    "name": "Trini Martin",
    "opening_hours": "Mo-Sa 09:30-13:30, 17:00-20:30",
    "phone": "+34 936720965",
    "shop": "jewelry"
  }
},
{
  "type": "node",
  "id": 3160140343,
  "lat": 41.4122444,
  "lon": 1.9689201,
  "tags": {
    "addr:housenumber": "43,49",
    "addr:street": "Avinguda Catalunya",
    "name": "Pepa",
    "opening_hours": "Mo-We 09:00-13:00, 15:00-19:00; Th 09:00-19:00; Fr 09:00-13:00, 15:00-19:00; Sa 09:00-13:00",
    "phone": "+34 679257415",
    "shop": "hairdresser"
  }
},
{
  "type": "node",
  "id": 3325790405,
  "lat": 41.4120393,
  "lon": 1.9694483,
  "tags": {
    "addr:housenumber": "27",
    "addr:street": "Avinguda Catalunya",
    "entrance": "yes",
    "name": "Pròxim Roca",
    "phone": "+34 936720091",
    "shop": "convenience"
  }
},
{
  "type": "node",
  "id": 3325790406,
  "lat": 41.4120868,
  "lon": 1.9693408,
  "tags": {
    "addr:housenumber": "31",
    "addr:street": "Avinguda Catalunya",
    "email": "estanclapalma@rigolroig.cat",
    "entrance": "main",
    "name": "l'Estanc",
    "opening_hours": "Mo-Fr 09:00-14:15, 17:30-20:30; Sa 09:00-14:30",
    "phone": "+34 936720078",
    "shop": "tobacco",
    "stamps": "yes",
    "start_date": "1860",
    "tobacco": "yes"
  }
},
{
  "type": "node",
  "id": 3335667794,
  "lat": 41.4137612,
  "lon": 1.9656348,
  "tags": {
    "addr:housenumber": "112",
    "addr:street": "Avinguda Catalunya",
    "entrance": "yes",
    "name": "Tot imatge",
    "phone": "+34 936720072",
    "shop": "hairdresser"
  }
},
{
  "type": "node",
  "id": 3336641119,
  "lat": 41.4141628,
  "lon": 1.9644420,
  "tags": {
    "addr:housenumber": "126",
    "addr:street": "Avinguda Catalunya",
    "email": "info@moblessantjosep.com",
    "entrance": "main",
    "fax": "+34 936720113",
    "name": "Mobles Sant Josep",
    "phone": "+34 936720113",
    "shop": "furniture",
    "start_date": "1957",
    "website": "www.moblessantjosep.com"
  }
},
{
  "type": "node",
  "id": 3356512432,
  "lat": 41.4131549,
  "lon": 1.9674073,
  "tags": {
    "addr:housenumber": "62",
    "addr:street": "Avinguda Catalunya",
    "email": "abclapalma@abcgrup.com",
    "name": "ABC",
    "opening_hours": "Mo-Fr 08:00-13:00; 15:00-19:00",
    "phone": "+34 664340065",
    "shop": "electrical_equipment",
    "website": "www.abcgrup.com"
  }
},
{
  "type": "node",
  "id": 3372618995,
  "lat": 41.4131143,
  "lon": 1.9681711,
  "tags": {
    "addr:housenumber": "5",
    "addr:street": "Carrer Cadí",
    "name": "L'Àmfora",
    "opening_hours": "Mo-Fr 07:30-14:00, 16:30-20:00; Sa 08:30-14:00, 18:00-20:00; Su 08:30-14:00",
    "phone": "+34 609889085",
    "shop": "newsagent"
  }
},
{
  "type": "node",
  "id": 3376883689,
  "lat": 41.4126279,
  "lon": 1.9682845,
  "tags": {
    "addr:housenumber": "52",
    "addr:street": "Avinguda Catalunya",
    "name": "Andrés",
    "opening_hours": "Mo-Sa 07:30-21:00",
    "shop": "greengrocer"
  }
},
{
  "type": "node",
  "id": 3526606590,
  "lat": 41.4117419,
  "lon": 1.9707594,
  "tags": {
    "addr:housenumber": "2",
    "addr:street": "Passatge de l'Esglèsia",
    "contact:phone": "+34 609280883",
    "email": "info@global-jardineria.com",
    "name": "Global Jardineria",
    "opening_hours": "Mo 16:00-20:00; Tu-Fr 09:30-13:30, 16:00-20:00; Sa 10:00-14:00",
    "phone": "+34 936720721",
    "shop": "garden_furniture",
    "website": "www.global-jardineria.com"
  }
},
{
  "type": "node",
  "id": 2015839769,
  "lat": 41.4118662,
  "lon": 1.9714444,
  "tags": {
    "addr:housenumber": "2",
    "addr:street": "Carrer Doctor Fleming",
    "craft": "caterer",
    "name": "La Palmarenca",
    "phone": "+34 936720142"
  }
},
{
  "type": "node",
  "id": 2015839770,
  "lat": 41.4128841,
  "lon": 1.9678132,
  "tags": {
    "addr:housenumber": "54-56",
    "addr:street": "Avinguda Catalunya",
    "craft": "caterer",
    "name": "Tasti-ho",
    "phone": "+34 936720390"
  }
},
{
  "type": "node",
  "id": 2016906219,
  "lat": 41.4110296,
  "lon": 1.9711187,
  "tags": {
    "addr:housenumber": "8",
    "addr:street": "Carrer Sant Cristòfol",
    "craft": "reforms",
    "email": "reformas.miguelortuno@hotmail.com",
    "name": "Miguel Ortuño",
    "phone": "+34 606052066"
  }
},
{
  "type": "node",
  "id": 2020118967,
  "lat": 41.4133031,
  "lon": 1.9683887,
  "tags": {
    "addr:housenumber": "7",
    "addr:street": "Carrer Cadí",
    "craft": "electrician",
    "email": "bernalferre@gmail.com",
    "name": "Bernal Ferré",
    "opening_hours": "Mo-Fr 09:00-13:00, 15:00-16:20",
    "phone": "+34 936500377"
  }
},
{
  "type": "node",
  "id": 2020118973,
  "lat": 41.4123580,
  "lon": 1.9689491,
  "tags": {
    "addr:housenumber": "42",
    "addr:street": "Avinguda Catalunya",
    "craft": "window_construction",
    "fax": "+34 936722018",
    "name": "Calso",
    "phone": "+34 936722018"
  }
},
{
  "type": "node",
  "id": 2020118985,
  "lat": 41.4135116,
  "lon": 1.9666263,
  "tags": {
    "addr:housenumber": "76",
    "addr:street": "Avinguda Catalunya",
    "craft": "carpenter",
    "email": "fusteriajmoreno@fusteriajmoreno.com",
    "entrance": "yes",
    "fax": "+34 936722607",
    "name": "Fusteria Jordi Moreno",
    "opening_hours": "Mo-Th 09:00-13:00, 15:30-19:00; Fr 09:00-15:00",
    "phone": "+34 936720570",
    "shop": "furniture",
    "website": "www.fusteriajmoreno.com"
  }
},
{
  "type": "node",
  "id": 2020715059,
  "lat": 41.4112247,
  "lon": 1.9710450,
  "tags": {
    "addr:housenumber": "2-4",
    "addr:street": "Carrer Sant Cristòfol",
    "craft": "painter",
    "email": "arpescp@hotmail.com",
    "name": "Arpe",
    "phone": "+34 936720970"
  }
},
{
  "type": "node",
  "id": 3544622910,
  "lat": 41.4125413,
  "lon": 1.9692505,
  "tags": {
    "addr:housenumber": "7",
    "addr:street": "Carrer Montseny",
    "contact:phone": "+34 606846731",
    "craft": "electrician",
    "email": "instrosiolle@gmail.com",
    "name": "Instal·lacions Ros i Olle",
    "phone": "+34 936721080"
  }
},
{
  "type": "way",
  "id": 191108832,
  "nodes": [
    2016906225,
    2016906227,
    2016906226,
    2016906224,
    2016906225
  ],
  "tags": {
    "addr:city": "la Palma de Cervelló",
    "addr:housenumber": "s/n",
    "addr:postcode": "08756",
    "addr:street": "Passeig del Roure",
    "building": "yes",
    "name": "Camp-Vell",
    "phone": "+34 936722600",
    "shop": "trave",
    "trade": "wood"
  }
}

  ]


